2022-019D               
1 51827U 22019D   22085.50967690  .00001995  00000+0  12909-3 0  9993
2 51827  97.5172 161.7675 0017111 169.0875 306.0009 15.09195187  4127
2022-019E               
1 51828U 22019E   22085.50896869  .00002760  00000+0  17675-3 0  9999
2 51828  97.5163 161.7670 0018085 171.0503 304.0003 15.09256271  4129
2022-019F               
1 51829U 22019F   22085.48615684  .00005784  00000+0  36454-3 0  9996
2 51829  97.5216 161.7666 0017755 171.8465 188.3056 15.09393458  4122
2022-019G               
1 51830U 22019G   22085.48614878  .00005365  00000+0  33839-3 0  9991
2 51830  97.5153 161.7396 0018304 171.8799 188.2730 15.09390620  4121
2022-019H               
1 51831U 22019H   22085.50869420  .00002624  00000+0  16769-3 0  9998
2 51831  97.5174 161.7697 0018534 179.2334 305.4678 15.09363702  4126
2022-019J               
1 51832U 22019J   22085.50859897  .00001244  00000+0  81658-4 0  9993
2 51832  97.5157 161.7683 0018769 177.9095 306.7851 15.09346473  4125
2022-019K               
1 51833U 22019K   22085.35949131  .00003608  00000+0  22707-3 0  9993
2 51833  97.5146 161.6302 0016318 175.3158 251.9172 15.09722124  4107
2022-019L               
1 51834U 22019L   22085.50286734  .00003014  00000+0  19044-3 0  9995
2 51834  97.5180 161.7886 0016971 176.9970 308.3479 15.09694604  4128
2022-019M               
1 51835U 22019M   22085.50272216  .00002911  00000+0  18400-3 0  9996
2 51835  97.5177 161.7777 0016851 177.7303 307.4960 15.09701815  4128
2022-019N               
1 51836U 22019N   22085.50140612  .00004601  00000+0  28754-3 0  9992
2 51836  97.5168 161.7818 0016944 177.4338 307.8869 15.09823080  4124
2022-019P               
1 51837U 22019P   22085.49840709  .00004631  00000+0  28812-3 0  9993
2 51837  97.5126 161.7668 0016268 178.5698 307.0372 15.09993243  4122
2022-019Q               
1 51838U 22019Q   22085.49815164  .00003170  00000+0  19870-3 0  9992
2 51838  97.5174 161.7893 0015830 176.7878 308.8536 15.09961840  4129
2022-019R               
1 51839U 22019R   22085.51034722  .00003153  00000+0  19763-3 0  9991
2 51839  97.5159 161.7931 0015926 177.0628  15.2790 15.09965955  4121
2022-019S               
1 51840U 22019S   22085.49765168  .00003144  00000+0  19696-3 0  9990
2 51840  97.5175 161.7850 0015829 175.0458 310.6859 15.09989968  4120
2022-019T               
1 51841U 22019T   22085.49650297  .00003200  00000+0  20006-3 0  9997
2 51841  97.5165 161.7874 0015648 174.2242 311.5161 15.10054360  4124
2022-019U               
1 51842U 22019U   22085.53877939  .00005846  00000+0  23911-3 0  9993
2 51842  97.5634 162.5212 0072388 118.1161 355.6281 15.22315753  4167
2022-019V               
1 51843U 22019V   22085.49579782  .00001641  00000+0  10450-3 0  9997
2 51843  97.5202 161.8016 0015983 181.3358 304.4986 15.10049526  4120
2022-019W               
1 51844U 22019W   22085.50955870  .00002460  00000+0  15806-3 0  9996
2 51844  97.5149 161.7649 0018914 179.1456 295.8576 15.09215215  4028
2022-019X               
1 51845U 22019X   22085.50052690  .00003780  00000+0  23680-3 0  9990
2 51845  97.5174 161.7852 0016691 177.3030 308.0968 15.09849186  4045
2022-019Y               
1 51846U 22019Y   22085.49997784  .00003102  00000+0  19501-3 0  9996
2 51846  97.5153 161.7836 0016577 175.2380 310.2252 15.09858108  4048
STRIX-BETA              
1 51847U 22020A   22085.50628622  .00002058  00000+0  16531-3 0  9992
2 51847  97.7751 139.2975 0012863 197.6664 271.6936 15.01106869  3844
ELECTRON KICK STAGE R/B 
1 51848U 22020B   22085.15400333  .00004819  00000+0  23670-3 0  9990
2 51848  97.0906 136.5113 0058138 302.0815  57.4783 15.17006724  3834
GOES 18                 
1 51850U 22021A   22085.22786757 -.00000199  00000+0  00000+0 0  9995
2 51850   0.0456 303.4895 0000249 267.3137 325.4470  1.00275114   323
ATLAS 5 CENTAUR R/B     
1 51851U 22021B   22083.79029212 -.00000158  00000+0  00000+0 0  9997
2 51851   9.6343 331.8919 4765990 182.3001 174.1901  1.85569205   415
STARLINK-3542           
1 51852U 22022A   22085.25001157 -.00713218  00000+0 -68261-2 0  9995
2 51852  53.2175  32.1375 0001329  59.3104 111.8871 15.68176577  4839
STARLINK-3539           
1 51853U 22022B   22085.25001157 -.00713125  00000+0 -68612-2 0  9993
2 51853  53.2174  32.1382 0001327  59.3264 109.7006 15.68048722  4782
STARLINK-3541           
1 51854U 22022C   22085.25001157 -.00713273  00000+0 -67909-2 0  9996
2 51854  53.2174  32.1371 0001263  69.0226 104.3069 15.68304421  4833
STARLINK-3545           
1 51855U 22022D   22084.91668981 -.00716681  00000+0 -66128-2 0  9991
2 51855  53.2176  33.7747 0001146  66.7629  27.1236 15.69072056  3745
STARLINK-3568           
1 51856U 22022E   22084.91668981 -.00716654  00000+0 -66478-2 0  9990
2 51856  53.2176  33.7750 0001112  71.4247  20.5599 15.68944250  3744
STARLINK-3571           
1 51857U 22022F   22084.91668981 -.00716598  00000+0 -65420-2 0  9994
2 51857  53.2176  33.7734 0001157  66.5757  30.9994 15.69327658  3749
STARLINK-3563           
1 51858U 22022G   22084.91668981 -.00716680  00000+0 -65778-2 0  9993
2 51858  53.2176  33.7738 0001110  71.5920  24.1580 15.69199893  3745
STARLINK-3560           
1 51859U 22022H   22085.50001157  .00013005  00000+0  96873-4 0  9997
2 51859  53.2183  30.8666 0001304  85.2694  97.6765 15.73214959  4878
STARLINK-3559           
1 51860U 22022J   22085.50001157 -.00084534  00000+0 -60204-3 0  9994
2 51860  53.2177  30.8686 0001334  73.3732 108.3841 15.73273938  4821
STARLINK-3562           
1 51861U 22022K   22085.50001157 -.00098851  00000+0 -70608-3 0  9991
2 51861  53.2181  30.8641 0001045  80.0230 104.2007 15.73270467  4828
STARLINK-3508           
1 51862U 22022L   22085.58334491 -.00088424  00000+0 -63116-3 0  9991
2 51862  53.2191  30.4540 0001198  86.0318 208.5603 15.73240371  4883
STARLINK-3555           
1 51863U 22022M   22085.50001157 -.00017219  00000+0 -11846-3 0  9991
2 51863  53.2182  30.8614 0000889  73.4570 112.1606 15.73213928  4821
STARLINK-3548           
1 51864U 22022N   22085.50001157 -.00100026  00000+0 -71545-3 0  9993
2 51864  53.2188  30.8651 0001182  76.7311 106.9329 15.73243372  4879
STARLINK-3503           
1 51865U 22022P   22085.50001157 -.00085438  00000+0 -60965-3 0  9997
2 51865  53.2173  30.8591 0000903  79.4830 107.3813 15.73234661  4822
STARLINK-3553           
1 51866U 22022Q   22085.50001157 -.00085862  00000+0 -61232-3 0  9997
2 51866  53.2181  30.8621 0001178  73.5001 111.4094 15.73249509  4820
STARLINK-3590           
1 51867U 22022R   22085.58334491 -.00067086  00000+0 -47691-3 0  9997
2 51867  53.2185  30.4452 0001177  84.2839 215.4212 15.73223718  4832
STARLINK-3578           
1 51868U 22022S   22084.91668981  .00045389  00000+0  32647-3 0  9993
2 51868  53.2183  33.7451 0001046  80.2411  40.3819 15.73171342  3745
STARLINK-3588           
1 51869U 22022T   22085.50001157 -.00089483  00000+0 -63799-3 0  9993
2 51869  53.2183  30.8539 0001243  87.8313 101.5329 15.73271484  4828
STARLINK-3591           
1 51870U 22022U   22085.50001157 -.00089212  00000+0 -63643-3 0  9993
2 51870  53.2180  30.8557 0001153  78.7272 109.4024 15.73256995  4874
STARLINK-3567           
1 51871U 22022V   22085.50001157 -.00103593  00000+0 -74041-3 0  9997
2 51871  53.2184  30.8529 0001101  66.5757 123.4235 15.73275695  4872
STARLINK-3554           
1 51872U 22022W   22085.50001157 -.00022347  00000+0 -15514-3 0  9995
2 51872  53.2181  30.8548 0001091  59.3118 129.4282 15.73214113  4821
STARLINK-3582           
1 51873U 22022X   22085.58334491 -.00084849  00000+0 -60523-3 0  9999
2 51873  53.2179  30.4359 0001047  77.8516 226.3297 15.73239888  4833
STARLINK-3574           
1 51874U 22022Y   22085.50001157 -.00077405  00000+0 -55162-3 0  9995
2 51874  53.2179  30.8507 0001174  66.3778 124.3158 15.73223941  4822
STARLINK-3585           
1 51875U 22022Z   22085.25001157  .00070230  00000+0  50128-3 0  9992
2 51875  53.2186  32.0846 0001024  59.1257 157.4174 15.73169866  4782
STARLINK-3583           
1 51876U 22022AA  22085.50001157 -.00077587  00000+0 -55212-3 0  9994
2 51876  53.2182  30.8497 0001251  71.4719 119.8519 15.73258341  4826
STARLINK-3556           
1 51877U 22022AB  22085.50001157 -.00063137  00000+0 -44807-3 0  9999
2 51877  53.2184  30.8438 0001131  57.3305 137.2237 15.73239265  4820
STARLINK-3575           
1 51878U 22022AC  22085.50001157 -.00098802  00000+0 -70583-3 0  9997
2 51878  53.2180  30.8474 0001115  79.1916 113.3355 15.73266865  4821
STARLINK-3572           
1 51879U 22022AD  22085.50001157 -.00090207  00000+0 -64431-3 0  9994
2 51879  53.2186  30.8417 0001354  70.8562 124.9530 15.73232677  4822
STARLINK-3566           
1 51880U 22022AE  22085.58334491 -.00083107  00000+0 -59284-3 0  9995
2 51880  53.2184  30.4316 0001292  85.3459 220.7612 15.73229236  4837
STARLINK-3504           
1 51881U 22022AF  22085.50001157 -.00075867  00000+0 -54041-3 0  9998
2 51881  53.2184  30.8387 0001029  62.8040 134.2761 15.73227134  4877
STARLINK-3570           
1 51882U 22022AG  22085.50001157 -.00085910  00000+0 -61281-3 0  9993
2 51882  53.2181  30.8421 0001166  59.4174 135.7488 15.73244015  4875
STARLINK-3576           
1 51883U 22022AH  22085.58334491 -.00079651  00000+0 -56791-3 0  9997
2 51883  53.2186  30.4231 0001282  77.0940 233.4854 15.73223471  4834
STARLINK-3577           
1 51884U 22022AJ  22085.50001157 -.00092180  00000+0 -65774-3 0  9993
2 51884  53.2182  30.8396 0001206  68.8474 127.5664 15.73265525  4909
STARLINK-3584           
1 51885U 22022AK  22085.25001157  .00071917  00000+0  51314-3 0  9994
2 51885  53.2185  32.0722 0001073  59.1144 163.8497 15.73168684  4780
STARLINK-3565           
1 51886U 22022AL  22085.50001157 -.00105437  00000+0 -75448-3 0  9994
2 51886  53.2180  30.8371 0001191  49.2109 148.4940 15.73255522  4829
